CCSDS_OEM_VERS = 2.0
CREATION_DATE = 2022-01-01T14:58:26.496984
ORIGINATOR = N/A

META_START
OBJECT_NAME          = Gaia
OBJECT_ID            = 2013-074A
CENTER_NAME          = EARTH
REF_FRAME            = EME2000
TIME_SYSTEM          = TDB
START_TIME           = 2022-01-01T00:00:00.000000
STOP_TIME            = 2023-01-01T00:00:00.000000
INTERPOLATION        = LAGRANGE
INTERPOLATION_DEGREE = 8
META_STOP

2022-09-28T00:00:00.000000  1530675.195715  277509.680921  279020.833245  -0.028813   0.176293   0.113466
2022-09-29T00:00:00.000000  1528162.384650  292712.946205  288726.700353  -0.029401   0.175731   0.111255
2022-09-30T00:00:00.000000  1525584.251488  307891.496169  298253.443880  -0.030350   0.175706   0.109314
2022-10-01T00:00:00.000000  1522903.684069  323087.345811  307622.639971  -0.031793   0.176110   0.107599
2022-10-02T00:00:00.000000  1520073.160140  338331.719313  316851.193434  -0.033835   0.176804   0.106046
2022-10-03T00:00:00.000000  1517038.010245  353642.738014  325949.893848  -0.036536   0.177625   0.104579
2022-10-04T00:00:00.000000  1513740.363325  369024.038430  334922.395474  -0.039909   0.178402   0.103110
2022-10-05T00:00:00.000000  1510123.492514  384464.473707  343764.722527  -0.043915   0.178967   0.101551
2022-10-06T00:00:00.000000  1506136.250457  399939.019138  352465.389102  -0.048463   0.179169   0.099818
2022-10-07T00:00:00.000000  1501737.213215  415410.950184  361006.205433  -0.053421   0.178890   0.097841
2022-10-08T00:00:00.000000  1496898.072440  430835.222751  369363.781349  -0.058621   0.178058   0.095570
2022-10-09T00:00:00.000000  1491605.813340  446162.738029  377511.611728  -0.063879   0.176651   0.092984
2022-10-10T00:00:00.000000  1485863.354178  461344.893055  385422.461911  -0.069013   0.174702   0.090088
2022-10-11T00:00:00.000000  1479688.578971  476337.665946  393070.645031  -0.073862   0.172282   0.086910
2022-10-12T00:00:00.000000  1473111.983269  491104.611183  400433.801138  -0.078297   0.169492   0.083498
2022-10-13T00:00:00.000000  1466173.410063  505618.519721  407493.977168  -0.082230   0.166444   0.079906
2022-10-14T00:00:00.000000  1458918.515693  519861.902586  414238.053730  -0.085614   0.163249   0.076191
2022-10-15T00:00:00.000000  1451395.575730  533826.672340  420657.716474  -0.088434   0.160011   0.072406
2022-10-16T00:00:00.000000  1443653.004287  547513.413994  426749.189663  -0.090701   0.156828   0.068602
2022-10-17T00:00:00.000000  1435737.653585  560930.559814  432512.902743  -0.092439   0.153784   0.064826
2022-10-18T00:00:00.000000  1427693.732417  574093.682728  437953.204609  -0.093684   0.150960   0.061123
2022-10-19T00:00:00.000000  1419562.075793  587025.021797  443078.190109  -0.094478   0.148431   0.057534
2022-10-20T00:00:00.000000  1411379.479852  599753.255371  447899.657003  -0.094872   0.146271   0.054104
2022-10-21T00:00:00.000000  1403177.845139  612313.443695  452433.165300  -0.094930   0.144554   0.050876
2022-10-22T00:00:00.000000  1394982.931092  624746.970923  456698.122363  -0.094732   0.143351   0.047895
2022-10-23T00:00:00.000000  1386812.622899  637101.230470  460717.767334  -0.094380   0.142729   0.045204
2022-10-24T00:00:00.000000  1378674.766623  649428.737682  464518.887190  -0.094005   0.142738   0.042842
2022-10-25T00:00:00.000000  1370564.842729  661785.362962  468131.086282  -0.093761   0.143404   0.040834
2022-10-26T00:00:00.000000  1362463.980387  674227.508757  471585.481910  -0.093825   0.144712   0.039188
2022-10-27T00:00:00.000000  1354337.964470  686808.326527  474912.828494  -0.094372   0.146600   0.037888
2022-10-28T00:00:00.000000  1346137.828451  699573.423972  478141.259955  -0.095565   0.148955   0.036889
2022-10-29T00:00:00.000000  1337802.301966  712556.795289  481294.009112  -0.097523   0.151624   0.036123
2022-10-30T00:00:00.000000  1329261.888945  725777.752523  484387.521795  -0.100313   0.154423   0.035503
2022-10-31T00:00:00.000000  1320443.917748  739239.394828  487430.290407  -0.103943   0.157164   0.034932
2022-11-01T00:00:00.000000  1311277.732163  752928.748668  490422.536175  -0.108361   0.159666   0.034318
2022-11-02T00:00:00.000000  1301699.315319  766818.352611  493356.675878  -0.113466   0.161776   0.033574
2022-11-03T00:00:00.000000  1291654.922462  780868.884220  496218.398744  -0.119123   0.163375   0.032631
2022-11-04T00:00:00.000000  1281103.569262  795032.430870  498988.164033  -0.125174   0.164383   0.031439
2022-11-05T00:00:00.000000  1270018.387486  809256.093321  501642.965350  -0.131452   0.164764   0.029967
2022-11-06T00:00:00.000000  1258386.931901  823485.676319  504158.237863  -0.137792   0.164524   0.028210
2022-11-07T00:00:00.000000  1246210.558253  837669.214431  506509.775053  -0.144042   0.163708   0.026181
2022-11-08T00:00:00.000000  1233503.020989  851760.026358  508675.477198  -0.150067   0.162392   0.023915
2022-11-09T00:00:00.000000  1220288.448727  865718.974685  510636.724972  -0.155763   0.160673   0.021457
2022-11-10T00:00:00.000000  1206598.855753  879515.726803  512379.227236  -0.161053   0.158655   0.018860
2022-11-11T00:00:00.000000  1192471.397405  893129.055496  513893.337718  -0.165894   0.156444   0.016179
2022-11-12T00:00:00.000000  1177945.669436  906546.436380  515173.975990  -0.170272   0.154135   0.013464
2022-11-13T00:00:00.000000  1163061.368669  919763.269899  516220.334564  -0.174198   0.151815   0.010763
2022-11-14T00:00:00.000000  1147856.506443  932782.003695  517035.520470  -0.177699   0.149561   0.008120
2022-11-15T00:00:00.000000  1132366.172760  945611.344776  517626.229166  -0.180813   0.147442   0.005573
2022-11-16T00:00:00.000000  1116621.694147  958265.671623  518002.509455  -0.183590   0.145520   0.003162
2022-11-17T00:00:00.000000  1100649.950159  970764.681533  518177.645148  -0.186084   0.143857   0.000924
2022-11-18T00:00:00.000000  1084472.597084  983133.228741  518168.142382  -0.188362   0.142510  -0.001105
2022-11-19T00:00:00.000000  1068104.973586  995401.218488  517993.765942  -0.190504   0.141538  -0.002887
2022-11-20T00:00:00.000000  1051554.532677  1007603.321402  517677.512708  -0.192613   0.140993  -0.004384
2022-11-21T00:00:00.000000  1034818.779896  1019778.174929  517245.351258  -0.194817   0.140912  -0.005565
2022-11-22T00:00:00.000000  1017882.925001  1031966.687093  516725.514417  -0.197273   0.141308  -0.006411
2022-11-23T00:00:00.000000  1000717.765229  1044209.131024  516147.147675  -0.200155   0.142151  -0.006922
2022-11-24T00:00:00.000000  983278.615294  1056541.001095  515538.241415  -0.203644   0.143359  -0.007126
2022-11-25T00:00:00.000000  965506.179329  1068988.096681  514923.025170  -0.207892   0.144791  -0.007081
2022-11-26T00:00:00.000000  947329.911270  1081561.830387  514319.300980  -0.213003   0.146256  -0.006876
2022-11-27T00:00:00.000000  928673.633429  1094255.988327  513736.366997  -0.219001   0.147542  -0.006618
2022-11-28T00:00:00.000000  909462.331408  1107045.846499  513174.075593  -0.225836   0.148439  -0.006416
2022-11-29T00:00:00.000000  889628.628816  1119889.777182  512623.201872  -0.233384   0.148768  -0.006369
2022-11-30T00:00:00.000000  869117.705768  1132732.706837  512066.881311  -0.241482   0.148398  -0.006553
2022-12-01T00:00:00.000000  847890.124750  1145510.425249  511482.638943  -0.249942   0.147249  -0.007022
2022-12-02T00:00:00.000000  825922.708012  1158153.865506  510844.545834  -0.258577   0.145287  -0.007802
2022-12-03T00:00:00.000000  803207.975316  1170592.851520  510125.206340  -0.267213   0.142520  -0.008902
2022-12-04T00:00:00.000000  779752.692885  1182759.176975  509297.463797  -0.275696   0.138985  -0.010308
2022-12-05T00:00:00.000000  755575.960942  1194589.093241  508335.827495  -0.283894   0.134745  -0.011996
2022-12-06T00:00:00.000000  730707.127744  1206025.324043  507217.650967  -0.291701   0.129887  -0.013925
2022-12-07T00:00:00.000000  705183.716732  1217018.636343  505924.055105  -0.299034   0.124510  -0.016048
2022-12-08T00:00:00.000000  679049.459926  1227528.869151  504440.542697  -0.305832   0.118723  -0.018312
2022-12-09T00:00:00.000000  652352.424872  1237525.285100  502757.257142  -0.312057   0.112634  -0.020663
2022-12-10T00:00:00.000000  625143.171394  1246986.241326  500868.914379  -0.317688   0.106344  -0.023050
2022-12-11T00:00:00.000000  597472.941791  1255898.379291  498774.519882  -0.322729   0.099944  -0.025425
2022-12-12T00:00:00.000000  569391.995258  1264255.628885  496477.001691  -0.327200   0.093512  -0.027745
2022-12-13T00:00:00.000000  540948.210323  1272058.267208  493982.853767  -0.331135   0.087116  -0.029971
2022-12-14T00:00:00.000000  512185.983468  1279312.160659  491301.840500  -0.334580   0.080819  -0.032065
2022-12-15T00:00:00.000000  483145.330778  1286028.226233  488446.783826  -0.337590   0.074676  -0.033994
2022-12-16T00:00:00.000000  453861.018309  1292222.078169  485433.429607  -0.340232   0.068739  -0.035724
2022-12-17T00:00:00.000000  424361.521884  1297913.755873  482280.356585  -0.342586   0.063059  -0.037223
2022-12-18T00:00:00.000000  394667.647444  1303127.343586  479008.844370  -0.344750   0.057679  -0.038461
2022-12-19T00:00:00.000000  364790.740045  1307890.194667  475642.559001  -0.346845   0.052629  -0.039413
2022-12-20T00:00:00.000000  334730.599251  1312231.393176  472206.859874  -0.349018   0.047917  -0.040067
2022-12-21T00:00:00.000000  304473.518081  1316179.092226  468727.515111  -0.351432   0.043511  -0.040427
2022-12-22T00:00:00.000000  273991.222777  1319756.569371  465228.692224  -0.354258   0.039328  -0.040526
2022-12-23T00:00:00.000000  243241.729056  1322977.316016  461730.321630  -0.357638   0.035225  -0.040430
2022-12-24T00:00:00.000000  212172.946544  1325840.146417  458245.288722  -0.361656   0.031007  -0.040235
2022-12-25T00:00:00.000000  180729.055835  1328325.810415  454777.222186  -0.366312   0.026457  -0.040057
2022-12-26T00:00:00.000000  148858.494440  1330396.438875  451319.645780  -0.371510   0.021369  -0.040010
